{
    "links": {
        "self": "http://www.neowsapp.com/rest/v1/neo/3545479?api_key=iIulBulltgU6a56xZRHN4H3l9WmuAYTsLGpBGhQ2"
    },
    "id": "3545479",
    "neo_reference_id": "3545479",
    "name": "(2010 RU3)",
    "designation": "2010 RU3",
    "nasa_jpl_url": "http://ssd.jpl.nasa.gov/sbdb.cgi?sstr=3545479",
    "absolute_magnitude_h": 26.6,
    "estimated_diameter": {
        "kilometers": {
            "estimated_diameter_min": 0.0127219879,
            "estimated_diameter_max": 0.0284472297
        },
        "meters": {
            "estimated_diameter_min": 12.7219878539,
            "estimated_diameter_max": 28.4472296503
        },
        "miles": {
            "estimated_diameter_min": 0.0079050743,
            "estimated_diameter_max": 0.0176762835
        },
        "feet": {
            "estimated_diameter_min": 41.7388066307,
            "estimated_diameter_max": 93.330808926
        }
    },
    "is_potentially_hazardous_asteroid": false,
    "close_approach_data": [
        {
            "close_approach_date": "2010-09-05",
            "close_approach_date_full": "2010-Sep-05 05:18",
            "epoch_date_close_approach": 1283663880000,
            "relative_velocity": {
                "kilometers_per_second": "5.8388535337",
                "kilometers_per_hour": "21019.8727213395",
                "miles_per_hour": "13060.9314695456"
            },
            "miss_distance": {
                "astronomical": "0.0630623312",
                "lunar": "24.5312468368",
                "kilometers": "9433990.424754544",
                "miles": "5862009.8249349472"
            },
            "orbiting_body": "Earth"
        }
    ],
    "orbital_data": {
        "orbit_id": "6",
        "orbit_determination_date": "2017-04-06 08:56:55",
        "first_observation_date": "2010-09-02",
        "last_observation_date": "2010-09-03",
        "data_arc_in_days": 1,
        "observations_used": 13,
        "orbit_uncertainty": "9",
        "minimum_orbit_intersection": ".062474",
        "jupiter_tisserand_invariant": "3.844",
        "epoch_osculation": "2455442.5",
        "eccentricity": ".4323988379343428",
        "semi_major_axis": "1.882311667799186",
        "inclination": "5.517744189732126",
        "ascending_node_longitude": "338.9502959072245",
        "orbital_period": "943.2693615636149",
        "perihelion_distance": "1.068402290012563",
        "perihelion_argument": "10.3337518549499",
        "aphelion_distance": "2.696221045585808",
        "perihelion_time": "2455450.709031517119",
        "mean_anomaly": "356.8670122590815",
        "mean_motion": ".3816513232267444",
        "equinox": "J2000",
        "orbit_class": {
            "orbit_class_type": "AMO",
            "orbit_class_description": "Near-Earth asteroid orbits similar to that of 1221 Amor",
            "orbit_class_range": "1.017 AU < q (perihelion) < 1.3 AU"
        }
    },
    "is_sentry_object": false
}